{"fetched_at":"2026-03-30T13:17:50Z","count":15418,"tles":[{"name":"STARLINK-31777","line1":"1 59619U 24080U   26087.88187192  .00001658  00000+0  69726-4 0  9994","line2":"2 59619  43.0028 293.3397 0000985 272.9475  87.1263 15.27586509107422","category":"Starlink"}]}