{
  "norad_id": 59619,
  "name": "STARLINK-31777",
  "history": [
    {
      "epoch": "2026-03-28T21:09:53.733888",
      "apogee_km": 483.70591101359514,
      "perigee_km": 482.3533006289226,
      "latitude_deg": 40.278004661719784,
      "longitude_deg": -133.44029568019323,
      "semi_major_axis_km": 6861.166605821259,
      "eccentricity": 9.857e-05,
      "inclination_deg": 43.0028,
      "raan_deg": 293.3397,
      "arg_perigee_deg": 272.9475,
      "mean_anomaly_deg": 87.1263,
      "mean_motion_rev_day": 15.27586509
    }
  ]
}